STARLINK-2022           
1 47643U 21012Z   23272.32017941  .00009908  00000+0  68286-3 0  9991
2 47643  53.0521  97.6198 0001233  92.0223 268.0907 15.06412648145761
